[{"OBJECT_NAME":"STARLINK-5261","OBJECT_ID":"2023-010H","EPOCH":"2026-03-09T22:31:03.912672","MEAN_MOTION":14.98328948,"ECCENTRICITY":0.00026707,"INCLINATION":70.0025,"RA_OF_ASC_NODE":23.9453,"ARG_OF_PERICENTER":253.2979,"MEAN_ANOMALY":106.7888,"EPHEMERIS_TYPE":0,"CLASSIFICATION_TYPE":"U","NORAD_CAT_ID":55276,"ELEMENT_SET_NO":999,"REV_AT_EPOCH":17330,"BSTAR":3.853512e-5,"MEAN_MOTION_DOT":3.67e-6,"MEAN_MOTION_DDOT":0},{"OBJECT_NAME":"CZ-2C DEB","OBJECT_ID":"2013-035D","EPOCH":"2026-03-09T23:34:49.287360","MEAN_MOTION":14.88810695,"ECCENTRICITY":0.00555667,"INCLINATION":97.8149,"RA_OF_ASC_NODE":69.2801,"ARG_OF_PERICENTER":125.3803,"MEAN_ANOMALY":235.2624,"EPHEMERIS_TYPE":0,"CLASSIFICATION_TYPE":"U","NORAD_CAT_ID":39205,"ELEMENT_SET_NO":999,"REV_AT_EPOCH":67351,"BSTAR":0.0012724881,"MEAN_MOTION_DOT":0.0001222,"MEAN_MOTION_DDOT":0}]
